UNKNOWN                 
1 82912U          25300.24597513  .00005118  00000+0  20860-2 0  9990
2 82912  65.8360 281.3866 0780258 289.8508  62.0106 13.27181696573156
UNKNOWN                 
1 82961U          25301.15133361  .00010349  00000+0  16621-1 0  9993
2 82961  99.9275  97.9272 0392460 116.0782 248.1278 13.22223418549686
UNKNOWN                 
1 82965U          25301.65945996  .00001337  00000+0  18600-2 0  9994
2 82965 100.1169  19.7271 0002369 200.4397 159.6647 13.59868042518325
UNKNOWN                 
1 83903U          25302.46406940 -.00000204  00000+0  00000+0 0  9993
2 83903   6.2963 291.0088 0125087 249.9964 311.5500  0.99113191 43225
UNKNOWN                 
1 83934U          25293.39896398 -.00000171  00000+0  00000+0 0  9991
2 83934   5.9069 297.8514 0235087 270.2084 276.6429  1.02659294 44734
UNKNOWN                 
1 83970U          25300.23685391  .00002829  00000+0  30589-2 0  9991
2 83970  18.2795 272.1024 5075059  47.0133 345.7148  5.31409266193739
UNKNOWN                 
1 84006U          25299.94385169 -.00000062  00000+0  00000+0 0  9997
2 84006  22.5379 187.0039 6133716  44.3903 350.9608  2.16233174 83210
UNKNOWN                 
1 84188U          25302.16454320  .00078299  00000+0  10169+0 0  9996
2 84188  65.0563 294.3992 3869960  23.4801 350.3166  7.24342487 37985
UNKNOWN                 
1 84232U          25302.33273918  .00007184  00000+0  57864-2 0  9998
2 84232  20.4232 299.6814 6568632  18.5491 357.1160  3.16433167103288
UNKNOWN                 
1 84236U          25299.76086301  .00000270  00000+0  23016-2 0  9993
2 84236   9.4419 355.9427 6893893  52.7215 352.0432  2.62475380112746
UNKNOWN                 
1 84292U          25299.45767895  .00004147  00000+0  22981-2 0  9992
2 84292  23.8056 225.8380 4568187 126.0510 285.4181  6.21085600225122
UNKNOWN                 
1 84406U          25300.19824096  .00000778  00000+0  42928-2 0  9999
2 84406 101.7191  83.7450 0044767 135.4950  45.4018 12.67246146 43396
UNKNOWN                 
1 84407U          25295.42673257  .00000034  00000+0  38484-1 0  9996
2 84407  19.5518 337.6073 7202635  34.2808 356.0828  2.05750908 74811
UNKNOWN                 
1 84575U          25302.28349385 -.00000160  00000+0 -31130-2 0  9991
2 84575  18.1368 173.0085 7103265 355.6548   0.7035  2.19885031 64486
UNKNOWN                 
1 84932U          25302.51202552  .00000960  00000+0  78783-2 0  9999
2 84932   2.2044 271.1500 6568595   4.5993  94.1220  2.99855955130458
UNKNOWN                 
1 85004U          25301.15122892  .00001912  00000+0  60174-3 0  9991
2 85004  98.4160 272.8884 0046169 300.6591 117.7492 14.40922520624334
UNKNOWN                 
1 85010U          25298.57938106  .00001382  00000+0  14906-2 0  9994
2 85010  99.2507 161.9637 0027660  18.6065  10.8836 13.74894221597309
UNKNOWN                 
1 85015U          25302.23341318  .00000743  00000+0  15342-3 0  9997
2 85015  74.0461 123.3691 0014590  37.8628 322.3562 14.62203164636109
UNKNOWN                 
1 85023U          25301.27944199  .00033112  00000+0  54079-2 0  9990
2 85023  99.8537 307.2075 0004400  84.3545 287.2999 14.70779313622145
UNKNOWN                 
1 85027U          25302.47743588  .00000115  00000+0  18324-3 0  9997
2 85027  66.0414 209.8965 0181173 213.7710 145.1709 13.74215142598533
UNKNOWN                 
1 85047U          25300.16129325  .00014816  00000+0  25529-1 0  9996
2 85047 102.2548 255.8104 0102706 101.2850 259.9832 13.42269710570405
UNKNOWN                 
1 85061U          25301.91028972  .00004058  00000+0  16069-1 0  9998
2 85061 102.3946 281.6426 0280630 282.4972 102.8392 12.76633055550068
UNKNOWN                 
1 85100U          25302.27189286  .00000535  00000+0  17564-3 0  9997
2 85100  74.0445 304.9928 0012583 191.0876 184.0214 14.40652785626945
UNKNOWN                 
1 85106U          25302.53009562  .00000802  00000+0  92452-3 0  9996
2 85106 100.0559  41.2193 0010397 126.3429 255.8910 13.72814366597001
UNKNOWN                 
1 85151U          25300.84378849  .00023345  00000+0  34053-2 0  9994
2 85151  98.4053 162.9727 0009328 302.6705  57.3603 14.75751118472759
UNKNOWN                 
1 85210U          25299.17609557  .00000825  00000+0  81860-3 0  9993
2 85210  99.8538  78.8796 0217376  76.2132  99.4861 13.71425155595631
UNKNOWN                 
1 85217U          25302.50637951  .00003705  00000+0  99250-3 0  9993
2 85217  98.0303  39.8090 0208427 261.8352  95.9148 14.36692648621506
UNKNOWN                 
1 85237U          25301.49798667  .00004906  00000+0  10732-2 0  9995
2 85237  65.5350 333.5415 0511538  48.4748 315.9051 13.99983230602013
UNKNOWN                 
1 85238U          25301.78342855  .00000097  00000+0  11541-3 0  9999
2 85238  99.0550 232.2631 0062887 323.0799  65.1563 13.88330026604605
UNKNOWN                 
1 85246U          25302.48548771  .00001952  00000+0  70681-3 0  9992
2 85246  97.9888 310.1458 0225193  74.6183 287.9755 14.21245978616783
UNKNOWN                 
1 85373U          25302.31169181  .00002980  00000+0  20540-2 0  9999
2 85373 100.4213 332.2652 0047422 354.3652  66.8761 13.99696129605919
UNKNOWN                 
1 87014U          25302.13914653  .00003402  00000+0  52379-2 0  9990
2 87014 100.4950 263.9428 0057527 347.4484  30.9498 13.51556351584897
UNKNOWN                 
1 87042U          25300.38586206  .00000955  00000+0  59238-3 0  9997
2 87042  98.7199 345.2612 0043029 224.4515 135.3199 14.06990901547444
UNKNOWN                 
1 87051U          25302.46130389  .00002820  00000+0  96895-3 0  9998
2 87051  65.7307 359.8664 0719044 161.6193 201.2353 13.45680616582623
UNKNOWN                 
1 87054U          25302.40731296  .00002469  00000+0  14080-2 0  9993
2 87054 100.0929 176.4005 0013194  99.1781 261.0879 14.10802563610070
UNKNOWN                 
1 87071U          25300.68195231  .00011307  00000+0  39929-2 0  9993
2 87071  61.2214  48.6495 0485441 214.3657 142.5074 13.84857813596103
UNKNOWN                 
1 87113U          25279.10108060  .01762118  14827-2  71219-2 0  9993
2 87113  65.5997 277.2947 0031772 239.2111 120.5927 15.85548661625569
UNKNOWN                 
1 87129U          25300.72292033  .00000231  00000+0  19967-2 0  9994
2 87129 102.2638  31.1389 0034494 171.8345 188.3287 12.42791632540956
UNKNOWN                 
1 87159U          25300.62321296  .00001315  00000+0  15332-2 0  9996
2 87159  90.3475  67.7364 0104663  34.9602 325.8371 13.65910476550390
UNKNOWN                 
1 87163U          25302.41763012  .00002174  00000+0  68435-3 0  9993
2 87163  65.6026 345.5833 0642368  84.5644 282.8299 13.63571543571475
UNKNOWN                 
1 87164U          25298.75120487  .00005041  00000+0  10554-2 0  9992
2 87164  65.2020 107.0029 0097351  78.2129 282.9871 14.57743560628775
UNKNOWN                 
1 87204U          25302.32490834  .00002859  00000+0  11332-2 0  9991
2 87204  98.5392 164.0428 0046686  93.4865 267.1658 14.29010704619097
UNKNOWN                 
1 87211U          25299.26874488  .00004809  00000+0  13414-2 0  9998
2 87211  99.0861 295.7046 0052991 301.4501  72.4478 14.45961593700913
UNKNOWN                 
1 87214U          25296.94270461  .00002489  00000+0  22393-2 0  9992
2 87214 100.3267 290.7312 0074862  19.8485 340.5553 13.83918086593356
UNKNOWN                 
1 87237U          25295.12734809  .00000469  00000+0  38700-3 0  9993
2 87237  99.2632 350.7070 0104033  64.3273 326.4791 13.91689484604586
UNKNOWN                 
1 87239U          25301.23879622  .00012872  00000+0  32692-2 0  9992
2 87239  82.8732 121.4676 0019776 186.7162 173.3774 14.50563039621275
UNKNOWN                 
1 87245U          25301.63341116  .00006194  00000+0  12753-2 0  9991
2 87245  65.6416 168.3854 0437337 143.6963 251.9128 14.14947244607821
UNKNOWN                 
1 87271U          25302.43252164  .00005722  00000+0  10835-2 0  9998
2 87271  65.7572 355.3150 0421537  97.1411 267.7789 14.20881307606075
UNKNOWN                 
1 87280U          25300.40086691  .00000652  00000+0  11215-2 0  9993
2 87280  64.6174 349.9795 0131212 269.2981  89.3022 13.48493227527605
UNKNOWN                 
1 87293U          25302.15086195  .00017821  00000+0  36169-2 0  9991
2 87293  65.8969 263.6552 0425471  23.9299 338.0932 14.16929761607670
UNKNOWN                 
1 87300U          25297.88608279  .00002606  00000+0  18256-2 0  9998
2 87300 100.0831 275.4625 0030517  59.4669 300.9497 13.99188227606283
UNKNOWN                 
1 87304U          25302.56790096  .00002595  00000+0  38814-3 0  9993
2 87304  74.0208  47.4056 0017932  24.6584 335.5443 14.75172464639963
UNKNOWN                 
1 87320U          25300.45152512  .00002900  00000+0  18486-2 0  9994
2 87320  66.5940 194.6590 0414419  84.8428 279.9785 13.69826182587400
UNKNOWN                 
1 87334U          25301.34853791  .00026413  00000+0  16220-1 0  9993
2 87334  90.0097 271.7032 0079662  26.9347 333.5935 14.03920130380279
UNKNOWN                 
1 87335U          25302.37531218  .00029312  00000+0  17603-1 0  9992
2 87335  89.9938 268.0920 0094003   3.6061 356.5777 14.04512692380749
UNKNOWN                 
1 87405U          25300.41862494  .00003440  00000+0  24629-2 0  9997
2 87405  82.7482  96.6504 0058773 103.8760 256.8955 13.96036303604691
UNKNOWN                 
1 87426U          25299.21441433  .00004777  00000+0  18796-2 0  9993
2 87426  65.7832 103.3241 0065105 312.7525 227.2804 14.28930538615792
UNKNOWN                 
1 87448U          25300.53266306  .00001781  00000+0  14535-2 0  9998
2 87448 100.4547 141.3551 0064778 323.9187  35.7604 13.90398717602819
UNKNOWN                 
1 87456U          25302.20807272  .00016426  00000+0  25106-2 0  9994
2 87456  65.7817 209.1093 0509348  27.9965 334.7539 14.12644000605206
